#dV2023 12 25 22  0  0.00000000    1682       CTS   FIT  GFZ
## 2294 165600.00000000    30.00000000 60303 0.9166666666667
+    1   L64  0  0  0  0  0  0  0  0  0  0  0  0  0  0  0  0
+          0  0  0  0  0  0  0  0  0  0  0  0  0  0  0  0  0
+          0  0  0  0  0  0  0  0  0  0  0  0  0  0  0  0  0
+          0  0  0  0  0  0  0  0  0  0  0  0  0  0  0  0  0
+          0  0  0  0  0  0  0  0  0  0  0  0  0  0  0  0  0
++         0  0  0  0  0  0  0  0  0  0  0  0  0  0  0  0  0
++         0  0  0  0  0  0  0  0  0  0  0  0  0  0  0  0  0
++         0  0  0  0  0  0  0  0  0  0  0  0  0  0  0  0  0
++         0  0  0  0  0  0  0  0  0  0  0  0  0  0  0  0  0
++         0  0  0  0  0  0  0  0  0  0  0  0  0  0  0  0  0
%c L  cc GPS ccc cccc cccc cccc cccc ccccc ccccc ccccc ccccc
%c cc cc ccc ccc cccc cccc cccc cccc ccccc ccccc ccccc ccccc
%f  0.0000000  0.000000000  0.00000000000  0.000000000000000
%f  0.0000000  0.000000000  0.00000000000  0.000000000000000
%i    0    0    0    0      0      0      0      0         0
%i    0    0    0    0      0      0      0      0         0
/* CCCCCCCCCCCCCCCCCCCCCCCCCCCCCCCCCCCCCCCCCCCCCCCCCCCCCCCCCCCCCCCCCCCCCCCCCCCCC
/* C                             GFZ RSO-ORBIT                                 C
/* C DOI: https://doi.org/10.5880/GFZ_ORBIT/RSO/L64_G_v03                      C
/* C                                                                           C
/* C DORIS        RMS: not applicable                                          C
/* C GNSS-E Code  RMS: not applicable                                          C
/* C GNSS-E Phase RMS: not applicable                                          C
/* C GNSS-G Code  RMS:  50.721 [cm]   Obs.acc.:     14037 Obs.eli.:       719  C
/* C GNSS-G Phase RMS:   4.838 [mm]   Obs.acc.:     14037 Obs.eli.:       719  C
/* C SLR          RMS:  56.602 [cm]   Obs.acc.:         7 Obs.eli.:         0  C
/* C                                                                           C
/* CCCCCCCCCCCCCCCCCCCCCCCCCCCCCCCCCCCCCCCCCCCCCCCCCCCCCCCCCCCCCCCCCCCCCCCCCCCCC
*  2023 12 26 10 19 30.00000000
PL64    904.477803   2663.034897  -6267.078349   5700.067405
VL64  21093.224522  66016.188304  31227.862349 999999.999999
*  2023 12 26 10 20  0.00000000
PL64    967.680628   2859.448078  -6169.949409   5700.527874
VL64  21037.315882  64913.942546  33518.929095 999999.999999
*  2023 12 26 10 20 30.00000000
PL64   1030.673509   3052.447261  -6066.001044   5700.988299
VL64  20953.219189  63740.407813  35773.727634 999999.999999
*  2023 12 26 10 21  0.00000000
PL64   1093.371517   3241.820583  -5955.345807   5701.448629
VL64  20840.697419  62496.933882  37989.764345 999999.999999
*  2023 12 26 10 21 30.00000000
PL64   1155.689067   3427.360350  -5838.103679   5701.909003
VL64  20699.550718  61184.948125  40164.581746 999999.999999
*  2023 12 26 10 22  0.00000000
PL64   1217.540033   3608.863262  -5714.401955   5702.369429
VL64  20529.617079  59805.954758  42295.761550 999999.999999
*  2023 12 26 10 22 30.00000000
PL64   1278.837858   3786.130648  -5584.375125   5702.829837
VL64  20330.772680  58361.533733  44380.927608 999999.999999
*  2023 12 26 10 23  0.00000000
PL64   1339.495672   3958.968688  -5448.164736   5703.290303
VL64  20102.932767  56853.338957  46417.748679 999999.999999
*  2023 12 26 10 23 30.00000000
PL64   1399.426413   4127.188632  -5305.919263   5703.750818
VL64  19846.052890  55283.096506  48403.940770 999999.999999
*  2023 12 26 10 24  0.00000000
PL64   1458.542944   4290.607015  -5157.793957   5704.211299
VL64  19560.128874  53652.603928  50337.269517 999999.999999
*  2023 12 26 10 24 30.00000000
PL64   1516.758176   4449.045872  -5003.950693   5704.671731
VL64  19245.196556  51963.729853  52215.553552 999999.999999
*  2023 12 26 10 25  0.00000000
PL64   1573.985190   4602.332948  -4844.557806   5705.132091
VL64  18901.332786  50218.411726  54036.669070 999999.999999
*  2023 12 26 10 25 30.00000000
PL64   1630.137359   4750.301898  -4679.789912   5705.592310
VL64  18528.656164  48418.651359  55798.553113 999999.999999
*  2023 12 26 10 26  0.00000000
PL64   1685.128473   4892.792475  -4509.827722   5706.052328
VL64  18127.326794  46566.511867  57499.204356 999999.999999
*  2023 12 26 10 26 30.00000000
PL64   1738.872867   5029.650711  -4334.857859   5706.512298
VL64  17697.546222  44664.116751  59136.684397 999999.999999
*  2023 12 26 10 27  0.00000000
PL64   1791.285541   5160.729100  -4155.072662   5706.972380
VL64  17239.557752  42713.648541  60709.120467 999999.999999
*  2023 12 26 10 27 30.00000000
PL64   1842.282290   5285.886767  -3970.669987   5707.432661
VL64  16753.646736  40717.346542  62214.708182 999999.999999
*  2023 12 26 10 28  0.00000000
PL64   1891.779825   5404.989638  -3781.852997   5707.892910
VL64  16240.140778  38677.504485  63651.714039 999999.999999
*  2023 12 26 10 28 30.00000000
PL64   1939.695908   5517.910598  -3588.829947   5708.353176
VL64  15699.409870  36596.468074  65018.477976 999999.999999
*  2023 12 26 10 29  0.00000000
PL64   1985.949470   5624.529645  -3391.813958   5708.813649
VL64  15131.866326  34476.632244  66313.415763 999999.999999
*  2023 12 26 10 29 30.00000000
PL64   2030.460746   5724.734032  -3191.022788   5709.274395
VL64  14537.964533  32320.438450  67535.021120 999999.999999
*  2023 12 26 10 30  0.00000000
PL64   2073.151394   5818.418402  -2986.678593   5709.734992
VL64  13918.200756  30130.372121  68681.867834 999999.999999
*  2023 12 26 10 30 30.00000000
PL64   2113.944625   5905.484918  -2779.007686   5710.195169
VL64  13273.112874  27908.959940  69752.612150 999999.999999
*  2023 12 26 10 31  0.00000000
PL64   2152.765325   5985.843379  -2568.240284   5710.655543
VL64  12603.279882  25658.766621  70745.994998 999999.999999
*  2023 12 26 10 31 30.00000000
PL64   2189.540178   6059.411335  -2354.610253   5711.115483
VL64  11909.321261  23382.391780  71660.843750 999999.999999
*  2023 12 26 10 32  0.00000000
PL64   2224.197785   6126.114179  -2138.354843   5711.576004
VL64  11191.896460  21082.467041  72496.074293 999999.999999
*  2023 12 26 10 32 30.00000000
PL64   2256.668788   6185.885246  -1919.714422   5712.036433
VL64  10451.704267  18761.652393  73250.693246 999999.999999
*  2023 12 26 10 33  0.00000000
PL64   2286.885979   6238.665887  -1698.932199   5712.497304
VL64   9689.481989  16422.632294  73923.799253 999999.999999
*  2023 12 26 10 33 30.00000000
PL64   2314.784423   6284.405540  -1476.253951   5712.957954
VL64   8906.004710  14068.112409  74514.583925 999999.999999
*  2023 12 26 10 34  0.00000000
PL64   2340.301564   6323.061785  -1251.927735   5713.418741
VL64   8102.084651  11700.816391  75022.333126 999999.999999
*  2023 12 26 10 34 30.00000000
PL64   2363.377336   6354.600400  -1026.203609   5713.879057
VL64   7278.570406   9323.482336  75446.428233 999999.999999
*  2023 12 26 10 35  0.00000000
PL64   2383.954275   6378.995390   -799.333345   5714.339476
VL64   6436.345988   6938.859156  75786.347097 999999.999999
*  2023 12 26 10 35 30.00000000
PL64   2401.977619   6396.229022   -571.570131   5714.799781
VL64   5576.329726   4549.703064  76041.664858 999999.999999
*  2023 12 26 10 36  0.00000000
PL64   2417.395412   6406.291835   -343.168287   5715.260163
VL64   4699.472890   2158.774082  76212.054681 999999.999999
*  2023 12 26 10 36 30.00000000
PL64   2430.158597   6409.182654   -114.382963   5715.720493
VL64   3806.758332   -231.167483  76297.288106 999999.999999
*  2023 12 26 10 37  0.00000000
PL64   2440.221116   6404.908575    114.530152   5716.180780
VL64   2899.199492  -2617.364448  76297.235239 999999.999999
*  2023 12 26 10 37 30.00000000
PL64   2447.539992   6393.484963    343.315128   5716.640886
VL64   1977.839294  -4997.066088  76211.865068 999999.999999
*  2023 12 26 10 38  0.00000000
PL64   2452.075421   6374.935416    571.716090   5717.101111
VL64   1043.748878  -7367.531305  76041.245971 999999.999999
*  2023 12 26 10 38 30.00000000
PL64   2453.790852   6349.291739    799.477520   5717.561386
VL64     98.026292  -9726.032534  75785.546549 999999.999999
*  2023 12 26 10 39  0.00000000
PL64   2452.653069   6316.593895   1026.344555   5718.021597
VL64   -858.205128 -12069.860307  75445.035236 999999.999999
*  2023 12 26 10 39 30.00000000
PL64   2448.632259   6276.889940   1252.063283   5718.482041
VL64  -1823.798312 -14396.326533  75020.078945 999999.999999
*  2023 12 26 10 40  0.00000000
PL64   2441.702086   6230.235962   1476.381045   5718.942356
VL64  -2797.583785 -16702.767013  74511.142620 999999.999999
*  2023 12 26 10 40 30.00000000
PL64   2431.839754   6176.696002   1699.046719   5719.402593
VL64  -3778.371146 -18986.544726  73918.789339 999999.999999
*  2023 12 26 10 41  0.00000000
PL64   2419.026066   6116.341964   1919.811021   5719.862816
VL64  -4764.950916 -21245.053715  73243.679778 999999.999999
*  2023 12 26 10 41 30.00000000
PL64   2403.245482   6049.253521   2138.426795   5720.323011
VL64  -5756.096190 -23475.722535  72486.570649 999999.999999
*  2023 12 26 10 42  0.00000000
PL64   2384.486166   5975.518004   2354.649294   5720.783399
VL64  -6750.563650 -25676.016622  71648.313529 999999.999999
*  2023 12 26 10 42 30.00000000
PL64   2362.740037   5895.230292   2568.236471   5721.243798
VL64  -7747.094511 -27843.441274  70729.854896 999999.999999
*  2023 12 26 10 43  0.00000000
PL64   2338.002808   5808.492679   2778.949260   5721.704162
VL64  -8744.416128 -29975.545446  69732.235558 999999.999999
*  2023 12 26 10 43 30.00000000
PL64   2310.274033   5715.414745   2986.551855   5722.164494
VL64  -9741.244442 -32069.925482  68656.589418 999999.999999
*  2023 12 26 10 44  0.00000000
PL64   2279.557127   5616.113204   3190.811992   5722.624773
VL64 -10736.287518 -34124.228942  67504.141432 999999.999999
*  2023 12 26 10 44 30.00000000
PL64   2245.859389   5510.711748   3391.501211   5723.085010
VL64 -11728.248827 -36136.157161  66276.204083 999999.999999
EOF
